{
    "links": {
        "self": "http://www.neowsapp.com/rest/v1/neo/3739166?api_key=iIulBulltgU6a56xZRHN4H3l9WmuAYTsLGpBGhQ2"
    },
    "id": "3739166",
    "neo_reference_id": "3739166",
    "name": "(2016 AL2)",
    "designation": "2016 AL2",
    "nasa_jpl_url": "http://ssd.jpl.nasa.gov/sbdb.cgi?sstr=3739166",
    "absolute_magnitude_h": 22.9,
    "estimated_diameter": {
        "kilometers": {
            "estimated_diameter_min": 0.0699125232,
            "estimated_diameter_max": 0.1563291544
        },
        "meters": {
            "estimated_diameter_min": 69.9125232246,
            "estimated_diameter_max": 156.3291544087
        },
        "miles": {
            "estimated_diameter_min": 0.0434416145,
            "estimated_diameter_max": 0.097138403
        },
        "feet": {
            "estimated_diameter_min": 229.3718026961,
            "estimated_diameter_max": 512.8909429502
        }
    },
    "is_potentially_hazardous_asteroid": false,
    "close_approach_data": [
        {
            "close_approach_date": "2016-01-09",
            "close_approach_date_full": "2016-Jan-09 23:49",
            "epoch_date_close_approach": 1452383340000,
            "relative_velocity": {
                "kilometers_per_second": "2.847383181",
                "kilometers_per_hour": "10250.5794515774",
                "miles_per_hour": "6369.3114375649"
            },
            "miss_distance": {
                "astronomical": "0.2847770688",
                "lunar": "110.7782797632",
                "kilometers": "42602042.917323456",
                "miles": "26471681.9606214528"
            },
            "orbiting_body": "Earth"
        },
        {
            "close_approach_date": "2024-09-02",
            "close_approach_date_full": "2024-Sep-02 19:19",
            "epoch_date_close_approach": 1725304740000,
            "relative_velocity": {
                "kilometers_per_second": "7.7581073765",
                "kilometers_per_hour": "27929.1865554428",
                "miles_per_hour": "17354.1103905195"
            },
            "miss_distance": {
                "astronomical": "0.0895653116",
                "lunar": "34.8409062124",
                "kilometers": "13398779.841246292",
                "miles": "8325615.7294191496"
            },
            "orbiting_body": "Mars"
        },
        {
            "close_approach_date": "2049-02-10",
            "close_approach_date_full": "2049-Feb-10 22:40",
            "epoch_date_close_approach": 2496609600000,
            "relative_velocity": {
                "kilometers_per_second": "8.5194597868",
                "kilometers_per_hour": "30670.0552324981",
                "miles_per_hour": "19057.1795971041"
            },
            "miss_distance": {
                "astronomical": "0.0945491929",
                "lunar": "36.7796360381",
                "kilometers": "14144357.868059123",
                "miles": "8788896.4326689774"
            },
            "orbiting_body": "Mars"
        }
    ],
    "orbital_data": {
        "orbit_id": "11",
        "orbit_determination_date": "2017-04-06 08:29:29",
        "first_observation_date": "2016-01-02",
        "last_observation_date": "2016-02-06",
        "data_arc_in_days": 35,
        "observations_used": 36,
        "orbit_uncertainty": "6",
        "minimum_orbit_intersection": ".283403",
        "jupiter_tisserand_invariant": "4.155",
        "epoch_osculation": "2459000.5",
        "eccentricity": ".2590368712630422",
        "semi_major_axis": "1.702631638689836",
        "inclination": "5.773121927819162",
        "ascending_node_longitude": "84.54453664750623",
        "orbital_period": "811.4830928894237",
        "perihelion_distance": "1.261587266090155",
        "perihelion_argument": "30.77986043342984",
        "aphelion_distance": "2.143676011289518",
        "perihelion_time": "2459029.600138872138",
        "mean_anomaly": "347.0902424391026",
        "mean_motion": ".4436321633247573",
        "equinox": "J2000",
        "orbit_class": {
            "orbit_class_type": "AMO",
            "orbit_class_description": "Near-Earth asteroid orbits similar to that of 1221 Amor",
            "orbit_class_range": "1.017 AU < q (perihelion) < 1.3 AU"
        }
    },
    "is_sentry_object": false
}